KUIPER-00521            
1 68891U 26095AD  26204.83335647 -.00058395  00000+0 -70348-2 0  9992
2 68891  51.9022  69.9216 0001544 105.6262 159.0867 14.83674635  5897
KUIPER-00524            
1 68892U 26095AE  26204.64856343  .00001417  00000+0  23255-3 0  9990
2 68892  51.8991  78.4450 0002291 125.5013 234.6161 14.76427192 13164
VIASAT-3 F3             
1 68893U 26096A   26204.31066795 -.00000119  00000+0  00000+0 0  9998
2 68893   0.0967 272.7578 0001267 223.9659  74.7220  1.00271655   973
STARLINK-37527          
1 68895U 26097A   26204.48665949  .00006442  00000+0  20190-3 0  9995
2 68895  97.2893  39.3964 0001623  78.8316 281.3109 15.33413035 13045
STARLINK-37432          
1 68896U 26097B   26204.51928955  .00014730  00000+0  45757-3 0  9994
2 68896  97.2872  39.5067 0002071  81.2768 278.8709 15.33451707 13052
STARLINK-37534          
1 68897U 26097C   26204.50297807  .00024700  00000+0  76466-3 0  9998
2 68897  97.2824  39.5270 0003190  99.5946 260.5657 15.33452376 13052
STARLINK-37386          
1 68898U 26097D   26204.07881968  .00019971  00000+0  61936-3 0  9998
2 68898  97.2855  39.0350 0002658  86.5598 273.5949 15.33439890 12983
STARLINK-37514          
1 68899U 26097E   26204.47850110  .00016636  00000+0  51690-3 0  9999
2 68899  97.2868  39.4111 0001796  87.3956 272.7493 15.33419283 13043
STARLINK-36961          
1 68900U 26097F   26204.07066007  .00012787  00000+0  39775-3 0  9995
2 68900  97.2866  39.0463 0002523  88.6598 271.4934 15.33443093 12989
STARLINK-37360          
1 68901U 26097G   26204.49482315  .00028560  00000+0  88306-3 0  9996
2 68901  97.2885  39.5411 0001375  88.4731 271.6670 15.33465077 13054
STARLINK-37564          
1 68902U 26097H   26204.11959661  .00031701  00000+0  98092-3 0  9993
2 68902  97.2848  39.1331 0001902  76.4876 283.6579 15.33419495 12990
STARLINK-37567          
1 68903U 26097J   26204.07610144  .00021423  00000+0  66410-3 0  9998
2 68903  97.2868  39.0382 0002806  85.3836 274.7728 15.33438823 12989
STARLINK-37528          
1 68904U 26097K   26204.50841400  .00023592  00000+0  73083-3 0  9991
2 68904  97.2856  39.5216 0001985  97.4892 262.6576 15.33443723 13052
STARLINK-37494          
1 68905U 26097L   26204.06794439  .00016131  00000+0  50092-3 0  9998
2 68905  97.2855  39.0496 0003232  81.8384 278.3225 15.33440907 12984
STARLINK-37541          
1 68906U 26097M   26204.48396447  .00022951  00000+0  71126-3 0  9990
2 68906  97.2871  39.4027 0002331  89.8262 270.3247 15.33435657 13049
STARLINK-37551          
1 68907U 26097N   26204.48122545  .00015571  00000+0  48379-3 0  9991
2 68907  97.2874  39.4050 0001695  90.4018 269.7419 15.33433929 13041
STARLINK-37566          
1 68908U 26097P   26204.08425347  .00011890  00000+0  37018-3 0  9992
2 68908  97.2875  39.0282 0001720  81.9950 278.1488 15.33432696 12987
STARLINK-37544          
1 68909U 26097Q   26204.08152173  .00000353  00000+0  13256-4 0  9998
2 68909  97.2883  39.0291 0001794  97.3607 262.7840 15.33427519 12987
STARLINK-37493          
1 68910U 26097R   26204.07338468  .00020962  00000+0  64999-3 0  9999
2 68910  97.2852  39.0438 0003335  82.8202 277.3420 15.33433411 12985
STARLINK-37543          
1 68911U 26097S   26204.51657295  .00020799  00000+0  64496-3 0  9991
2 68911  97.2870  39.5103 0001779  89.0933 271.0513 15.33436281 13051
STARLINK-37477          
1 68912U 26097T   26204.11416997  .00018661  00000+0  57862-3 0  9994
2 68912  97.2859  39.1394 0003683  41.2529 318.8992 15.33456075 12990
STARLINK-37504          
1 68913U 26097U   26204.06522184  .00009928  00000+0  30958-3 0  9998
2 68913  97.2882  39.0515 0001923  93.0950 267.0513 15.33431157 12986
STARLINK-37540          
1 68914U 26097V   26204.12231746  .00011378  00000+0  35429-3 0  9997
2 68914  97.2869  39.1264 0001464  95.6294 264.5115 15.33440193 12994
STARLINK-37516          
1 68915U 26097W   26204.10056634  .00018377  00000+0  57041-3 0  9997
2 68915  97.2874  39.1599 0001115  96.6432 263.4938 15.33431242 12996
STARLINK-37507          
1 68916U 26097X   26204.50025703  .00016430  00000+0  50998-3 0  9997
2 68916  97.2854  39.5335 0002369  92.0387 268.1127 15.33453780 13059
STARLINK-37542          
1 68917U 26097Y   26204.49753863  .00022506  00000+0  69729-3 0  9994
2 68917  97.2872  39.5349 0001946  93.2380 266.9085 15.33447642 13050
STARLINK-37529          
1 68918U 26097Z   26204.29361509  .00030310  00000+0  93763-3 0  9992
2 68918  97.2872  39.3540 0001180  90.9132 269.2246 15.33437922 13023
KUIPER-00370            
1 68919U 26098A   26204.83335647 -.00098103  00000+0 -83823-2 0  9999
2 68919  51.8874 256.4592 0010227 293.5441 115.4266 14.97631780  5760
KUIPER-00380            
1 68920U 26098B   26204.33725481  .00012267  00000+0  44433-3 0  9995
2 68920  51.8757 255.4714 0006532 294.6377  65.3925 15.28752218 12871
KUIPER-00386            
1 68921U 26098C   26204.83335647 -.01833676  00000+0 -12818+0 0  9998
2 68921  51.8903 252.0779 0003021  38.9031 359.1587 15.08418661  5380
KUIPER-00388            
1 68922U 26098D   26204.83335647 -.00033174  00000+0 -47195-2 0  9992
2 68922  51.8998 261.0061 0001506  72.3094  60.3407 14.76432624  5231
KUIPER-00405            
1 68923U 26098E   26204.83335647 -.00078136  00000+0 -10854-1 0  9991
2 68923  51.9012 258.5012 0002209 329.8543 343.9190 14.77888352  4969
KUIPER-00408            
1 68924U 26098F   26204.36928855 -.00020744  00000+0 -80191-3 0  9994
2 68924  51.8737 257.1457 0013252 287.2942  72.6590 15.25180816 12852
KUIPER-00409            
1 68925U 26098G   26204.83335647 -.00058475  00000+0 -64219-2 0  9992
2 68925  51.8992 256.1139 0002414 331.7040  95.5945 14.87455894  4761
KUIPER-00410            
1 68926U 26098H   26204.83335647 -.00076703  00000+0 -47646-2 0  9992
2 68926  51.8838 255.2896 0014185 280.9387 314.5933 15.09383752  4734
KUIPER-00412            
1 68927U 26098J   26204.83335647 -.02066464  00000+0 -74236-1 0  9992
2 68927  51.8815 250.2133 0004450  31.1340 176.4126 15.31469319  3566
KUIPER-00413            
1 68928U 26098K   26204.83335647 -.00069114  00000+0 -82298-2 0  9994
2 68928  51.9003 258.6888 0023284 296.2501   6.9072 14.84029355  4472
KUIPER-00414            
1 68929U 26098L   26204.58929919 -.00001815  00000+0 -20909-3 0  9994
2 68929  51.8984 269.7862 0001209 316.5239  43.5628 14.79929131 12694
KUIPER-00415            
1 68930U 26098M   26204.83335647 -.01361753  00000+0 -77993-1 0  9997
2 68930  51.8883 253.4656 0007980 267.2879 130.2721 15.15044477  3611
KUIPER-00416            
1 68931U 26098N   26204.45112840  .00026786  00000+0  72094-3 0  9994
2 68931  51.8757 251.8208 0001640   2.2585 357.8409 15.37669854 12936
KUIPER-00420            
1 68932U 26098P   26204.50505024  .00022102  00000+0  61175-3 0  9997
2 68932  51.8764 252.1913 0004739 347.4007  12.6860 15.36907669 12932
KUIPER-00421            
1 68933U 26098Q   26204.83335647 -.00034884  00000+0 -12589-2 0  9992
2 68933  51.8765 252.7944 0007370 272.6252 108.4969 15.27795912  4862
KUIPER-00425            
1 68934U 26098R   26204.83335647 -.00051611  00000+0 -46760-2 0  9998
2 68934  51.8946 256.6194 0012086 280.9188 334.8237 14.94989968  5508
KUIPER-00430            
1 68935U 26098S   26204.83335647 -.00066467  00000+0 -79005-2 0  9992
2 68935  51.9005 258.5669 0014199 282.2000 199.9166 14.84213133  5019
KUIPER-00431            
1 68936U 26098T   26204.52992034  .00015624  00000+0  20715-2 0  9999
2 68936  51.8996 262.4500 0000897  15.7152 344.3838 14.79975958 12792
KUIPER-00432            
1 68937U 26098U   26204.83335647 -.00949250  00000+0 -67251-1 0  9993
2 68937  51.8858 254.8599 0011100 282.9524 184.6273 15.07281209  4805
KUIPER-00434            
1 68938U 26098V   26204.83335647 -.00073809  00000+0 -88122-2 0  9993
2 68938  51.8995 256.3438 0001557  38.4017  99.7451 14.84171623  4708
KUIPER-00436            
1 68939U 26098W   26204.83335647 -.00061633  00000+0 -63546-2 0  9999
2 68939  51.8958 256.3432 0006665 283.2221 186.4452 14.90008017  3666
KUIPER-00438            
1 68940U 26098X   26204.83335647 -.00049375  00000+0 -42061-2 0  9999
2 68940  51.8931 254.3693 0005000 337.7727 258.3334 14.97415707  5816
KUIPER-00439            
1 68941U 26098Y   26204.83335647 -.00107272  00000+0 -86230-2 0  9997
2 68941  51.8919 254.3719 0005677 320.6714 335.8536 15.00065874  5556
KUIPER-00440            
1 68942U 26098Z   26204.71513109  .00019701  00000+0  64778-3 0  9997
2 68942  51.8777 252.8079 0003481 334.4452  25.6360 15.31527253 12942
KUIPER-00442            
1 68943U 26098AA  26204.54427713  .00022111  00000+0  79484-3 0  9993
2 68943  51.8810 253.1555 0002714 291.6552  68.4142 15.28553765 12921
KUIPER-00446            
1 68944U 26098AB  26204.83335647 -.01300647  00000+0 -85861-1 0  9990
2 68944  51.8892 252.7437 0002708 265.4671  80.1309 15.09906766  5504
KUIPER-00451            
1 68945U 26098AC  26204.53815307  .00001390  00000+0  22883-3 0  9991
2 68945  51.8980 262.3306 0000723  35.6067 324.4942 14.76391405 12793
KUIPER-00452            
1 68946U 26098AD  26204.83335647 -.01182153  00000+0 -62202-1 0  9996
2 68946  51.8836 251.2735 0003298 276.1456 144.2537 15.18102018  5226
KUIPER-00453            
1 68947U 26098AE  26204.83335647 -.00476788  00000+0 -17499-1 0  9994
2 68947  51.8794 250.3247 0004125   1.9475 160.8970 15.29481220  5506
KUIPER-00454            
1 68948U 26098AF  26204.44136043  .00001641  00000+0  26439-3 0  9997
2 68948  51.8974 264.1010 0003870 157.2994 202.8138 14.76441823 12760
KUIPER-00455            
1 68949U 26098AG  26204.83335647 -.00034167  00000+0 -44696-2 0  9997
2 68949  51.8989 261.1153 0001934 302.1124 325.4393 14.79987022  5066
KUIPER-00458            
1 68950U 26098AH  26204.83335647 -.00018282  00000+0 -62950-3 0  9993
2 68950  51.8788 250.6006 0002620 339.8821  19.6785 15.28973598  5570
